OBJECT_NAME,OBJECT_ID,EPOCH,MEAN_MOTION,ECCENTRICITY,INCLINATION,RA_OF_ASC_NODE,ARG_OF_PERICENTER,MEAN_ANOMALY,EPHEMERIS_TYPE,CLASSIFICATION_TYPE,NORAD_CAT_ID,ELEMENT_SET_NO,REV_AT_EPOCH,BSTAR,MEAN_MOTION_DOT,MEAN_MOTION_DDOT
STARLINK-34717,2025-165E,2026-07-18T17:58:06.805632,15.05660660,.00010056,97.2828,274.2289,147.8186,212.3103,0,U,65060,999,5451,.17376081E-3,.2452E-4,0
STARLINK-34750,2025-165F,2026-07-18T22:25:17.266368,15.05657591,.00015927,97.2830,274.4377,144.1239,216.0096,0,U,65061,999,5454,.29065664E-3,.4141E-4,0
STARLINK-34708,2025-165G,2026-07-18T18:30:00.420480,15.05660023,.00011098,97.2818,274.2011,167.1575,192.9681,0,U,65062,999,5451,.19083185E-3,.2699E-4,0
STARLINK-34798,2025-165H,2026-07-18T22:37:14.508192,15.05656912,.0001164,97.2857,274.4316,126.3831,233.7504,0,U,65063,999,5454,.19412968E-3,.2746E-4,0
STARLINK-34793,2025-165J,2026-07-18T19:37:47.964864,15.05673676,.00013074,97.2837,274.2893,96.7275,263.4102,0,U,65064,999,5452,.14723416E-3,.207E-4,0
STARLINK-34806,2025-165K,2026-07-18T19:01:54.381792,15.05659354,.00019581,97.2836,274.1735,111.4476,248.6960,0,U,65065,999,5451,.21499381E-3,.3048E-4,0
STARLINK-34739,2025-165L,2026-07-18T22:33:17.417952,15.05656973,.0001519,97.2838,274.4337,101.7317,258.4081,0,U,65066,999,5454,.43148888E-3,.6176E-4,0
STARLINK-34802,2025-165M,2026-07-18T18:33:59.492736,15.05662997,.00004751,97.2820,274.1963,179.2370,180.8859,0,U,65067,999,5451,.23617469E-3,.3354E-4,0
STARLINK-34810,2025-165N,2026-07-18T18:45:57.368736,15.05659614,.0000775,97.2830,274.1879,121.9229,238.2075,0,U,65068,999,5451,.18066494E-3,.2552E-4,0
STARLINK-34809,2025-165P,2026-07-18T18:37:59.009952,15.05659694,.00017844,97.2831,274.1943,136.1213,224.0157,0,U,65069,999,5451,.16954185E-3,.2391E-4,0
STARLINK-34794,2025-165Q,2026-07-18T18:57:55.221408,15.05657847,.00014029,97.2838,274.1760,112.7980,247.3396,0,U,65070,999,5451,.13657044E-3,.1915E-4,0
STARLINK-34805,2025-165R,2026-07-18T18:49:56.758080,15.05658775,.0001269,97.2833,274.1854,92.6160,267.5213,0,U,65071,999,5451,.14281687E-3,.2005E-4,0
STARLINK-34735,2025-165S,2026-07-18T18:10:04.418976,15.05659619,.00008403,97.2826,274.2177,140.6966,219.4323,0,U,65072,999,5451,.1750564E-3,.2471E-4,0
STARLINK-34781,2025-165T,2026-07-18T22:21:17.664480,15.05660591,.00023987,97.2846,274.4442,134.1142,226.0283,0,U,65073,999,5454,.18630734E-3,.2634E-4,0
STARLINK-34780,2025-165U,2026-07-18T18:41:58.291296,15.05659793,.0002007,97.2822,274.1908,125.8222,234.3192,0,U,65074,999,5451,.13968536E-3,.196E-4,0
STARLINK-34771,2025-167A,2026-07-18T05:42:37.815552,15.30195981,.00017727,53.1594,137.7492,79.3248,280.7952,0,U,65078,999,5350,.33633108E-3,.9614E-4,0
STARLINK-34634,2025-167B,2026-07-18T20:07:41.488896,15.34360602,.00004954,53.1560,132.9767,242.9965,117.0987,0,U,65079,999,5362,.62041012E-3,.20617E-3,0
STARLINK-34267,2025-167C,2026-07-18T20:10:41.626848,15.34403418,.00022312,53.1584,132.9846,89.7450,270.3808,0,U,65080,999,5484,.35824797E-3,.11748E-3,0
STARLINK-34561,2025-167D,2026-07-18T19:38:28.482144,15.30204632,.00020007,53.1598,134.9774,64.6737,295.4471,0,U,65081,999,5484,.35850145E-3,.10275E-3,0
STARLINK-34626,2025-167E,2026-07-18T20:13:01.592256,15.34401442,.00017583,53.1590,131.6035,94.0315,266.0889,0,U,65082,999,5364,.33819712E-3,.11068E-3,0
STARLINK-34247,2025-167F,2026-07-18T22:00:01.999584,15.34362745,.00011128,53.1595,134.6493,79.8884,34.9208,0,U,65083,999,587,-.78486504E-3,-.26769E-3,0
STARLINK-34601,2025-167G,2026-07-18T20:10:00.516000,15.34391561,.00010063,53.1574,131.5029,85.6994,274.4123,0,U,65084,999,5363,.85159718E-3,.28498E-3,0
STARLINK-34822,2025-167J,2026-07-18T05:55:42.172896,15.30200695,.00013752,53.1588,140.5977,96.2435,263.8722,0,U,65086,999,5346,.40574884E-3,.11677E-3,0
STARLINK-34686,2025-167K,2026-07-18T19:57:37.274688,15.30201681,.00013601,53.1603,137.8458,107.4421,252.6729,0,U,65087,999,5355,.24699638E-3,.6963E-4,0
STARLINK-34594,2025-167L,2026-07-18T05:46:35.115744,15.30203351,.00016538,53.1594,140.5584,89.0162,271.1029,0,U,65088,999,5346,.34748486E-3,.9947E-4,0
STARLINK-34665,2025-167M,2026-07-18T05:42:02.207520,15.30224251,.00014353,53.1599,140.5374,95.9894,264.1270,0,U,65089,999,5346,.47687747E-3,.13801E-3,0
STARLINK-34673,2025-167N,2026-07-18T21:18:01.127520,15.30215718,.00013088,53.1598,137.4832,87.9111,272.2040,0,U,65090,999,5356,.49699822E-3,.14396E-3,0
STARLINK-34648,2025-167P,2026-07-18T18:42:14.067072,15.34396310,.00012567,53.1605,131.8345,111.7550,248.3586,0,U,65091,999,5363,.1939053E-3,.618E-4,0
STARLINK-34640,2025-167Q,2026-07-18T03:57:19.901952,15.30199911,.00013137,53.1597,140.7921,91.0121,269.1030,0,U,65092,999,5345,.24256666E-3,.6832E-4,0
STARLINK-34266,2025-167R,2026-07-18T12:11:54.516768,15.34397428,.00012645,53.1584,132.9847,77.5009,282.6135,0,U,65093,999,5359,.26484763E-3,.8582E-4,0
