STARLINK-34717          
1 65060U 25165E   26199.74868988  .00002452  00000+0  17376-3 0  9990
2 65060  97.2828 274.2289 0001005 147.8186 212.3103 15.05660660 54512
STARLINK-34750          
1 65061U 25165F   26199.93422762  .00004141  00000+0  29066-3 0  9994
2 65061  97.2830 274.4377 0001592 144.1239 216.0096 15.05657591 54540
STARLINK-34708          
1 65062U 25165G   26199.77083820  .00002699  00000+0  19083-3 0  9999
2 65062  97.2818 274.2011 0001109 167.1575 192.9681 15.05660023 54515
STARLINK-34798          
1 65063U 25165H   26199.94252903  .00002746  00000+0  19413-3 0  9999
2 65063  97.2857 274.4316 0001164 126.3831 233.7504 15.05656912 54545
STARLINK-34793          
1 65064U 25165J   26199.81791626  .00002070  00000+0  14723-3 0  9995
2 65064  97.2837 274.2893 0001307  96.7275 263.4102 15.05673676 54521
STARLINK-34806          
1 65065U 25165K   26199.79299053  .00003048  00000+0  21499-3 0  9994
2 65065  97.2836 274.1735 0001958 111.4476 248.6960 15.05659354 54518
STARLINK-34739          
1 65066U 25165L   26199.93978493  .00006176  00000+0  43149-3 0  9994
2 65066  97.2838 274.4337 0001519 101.7317 258.4081 15.05656973 54541
STARLINK-34802          
1 65067U 25165M   26199.77360524  .00003354  00000+0  23617-3 0  9990
2 65067  97.2820 274.1963 0000475 179.2370 180.8859 15.05662997 54515
STARLINK-34810          
1 65068U 25165N   26199.78191399  .00002552  00000+0  18066-3 0  9995
2 65068  97.2830 274.1879 0000775 121.9229 238.2075 15.05659614 54513
STARLINK-34809          
1 65069U 25165P   26199.77637743  .00002391  00000+0  16954-3 0  9998
2 65069  97.2831 274.1943 0001784 136.1213 224.0157 15.05659694 54511
STARLINK-34794          
1 65070U 25165Q   26199.79022247  .00001915  00000+0  13657-3 0  9997
2 65070  97.2838 274.1760 0001402 112.7980 247.3396 15.05657847 54516
STARLINK-34805          
1 65071U 25165R   26199.78468470  .00002005  00000+0  14282-3 0  9995
2 65071  97.2833 274.1854 0001269  92.6160 267.5213 15.05658775 54516
STARLINK-34735          
1 65072U 25165S   26199.75699559  .00002471  00000+0  17506-3 0  9996
2 65072  97.2826 274.2177 0000840 140.6966 219.4323 15.05659619 54516
STARLINK-34781          
1 65073U 25165T   26199.93145445  .00002634  00000+0  18631-3 0  9998
2 65073  97.2846 274.4442 0002398 134.1142 226.0283 15.05660591 54543
STARLINK-34780          
1 65074U 25165U   26199.77914689  .00001960  00000+0  13969-3 0  9995
2 65074  97.2822 274.1908 0002007 125.8222 234.3192 15.05659793 54515
STARLINK-34771          
1 65078U 25167A   26199.23793768  .00009614  00000+0  33633-3 0  9999
2 65078  53.1594 137.7492 0001772  79.3248 280.7952 15.30195981 53506
STARLINK-34634          
1 65079U 25167B   26199.83867464  .00020617  00000+0  62041-3 0  9992
2 65079  53.1560 132.9767 0000495 242.9965 117.0987 15.34360602 53628
STARLINK-34267          
1 65080U 25167C   26199.84075957  .00011748  00000+0  35825-3 0  9998
2 65080  53.1584 132.9846 0002231  89.7450 270.3808 15.34403418 54843
STARLINK-34561          
1 65081U 25167D   26199.81838521  .00010275  00000+0  35850-3 0  9992
2 65081  53.1598 134.9774 0002000  64.6737 295.4471 15.30204632 54842
STARLINK-34626          
1 65082U 25167E   26199.84237954  .00011068  00000+0  33820-3 0  9995
2 65082  53.1590 131.6035 0001758  94.0315 266.0889 15.34401442 53643
STARLINK-34247          
1 65083U 25167F   26199.91668981 -.00026769  00000+0 -78487-3 0  9996
2 65083  53.1595 134.6493 0001112  79.8884  34.9208 15.34362745  5877
STARLINK-34601          
1 65084U 25167G   26199.84028375  .00028498  00000+0  85160-3 0  9991
2 65084  53.1574 131.5029 0001006  85.6994 274.4123 15.34391561 53637
STARLINK-34822          
1 65086U 25167J   26199.24701589  .00011677  00000+0  40575-3 0  9994
2 65086  53.1588 140.5977 0001375  96.2435 263.8722 15.30200695 53464
STARLINK-34686          
1 65087U 25167K   26199.83168142  .00006963  00000+0  24700-3 0  9996
2 65087  53.1603 137.8458 0001360 107.4421 252.6729 15.30201681 53559
STARLINK-34594          
1 65088U 25167L   26199.24068421  .00009947  00000+0  34748-3 0  9999
2 65088  53.1594 140.5584 0001653  89.0162 271.1029 15.30203351 53467
STARLINK-34665          
1 65089U 25167M   26199.23752555  .00013801  00000+0  47688-3 0  9998
2 65089  53.1599 140.5374 0001435  95.9894 264.1270 15.30224251 53468
STARLINK-34673          
1 65090U 25167N   26199.88751305  .00014396  00000+0  49700-3 0  9990
2 65090  53.1598 137.4832 0001308  87.9111 272.2040 15.30215718 53569
STARLINK-34648          
1 65091U 25167P   26199.77932948  .00006180  00000+0  19391-3 0  9998
2 65091  53.1605 131.8345 0001256 111.7550 248.3586 15.34396310 53630
STARLINK-34640          
1 65092U 25167Q   26199.16481368  .00006832  00000+0  24257-3 0  9998
2 65092  53.1597 140.7921 0001313  91.0121 269.1030 15.30199911 53457
STARLINK-34266          
1 65093U 25167R   26199.50826987  .00008582  00000+0  26485-3 0  9996
2 65093  53.1584 132.9847 0001264  77.5009 282.6135 15.34397428 53591
